ISS (ZARYA)             
1 25544U 98067A   25344.54178148  .00015517  00000+0  28443-3 0  9998
2 25544  51.6308 153.3620 0003360 230.7092 129.3599 15.49478601542510
CSS (TIANHE)            
1 48274U 21035A   25344.60082613  .00034963  00000+0  43761-3 0  9998
2 48274  41.4683  29.6917 0008768  13.0632 347.0432 15.59037498263691
ISS (NAUKA)             
1 49044U 21066A   25344.54178148  .00015517  00000+0  28443-3 0  9994
2 49044  51.6308 153.3620 0003360 230.7092 129.3599 15.49478601230447
FREGAT DEB              
1 49271U 11037PF  25344.06115507  .00003152  00000+0  72060-2 0  9995
2 49271  51.6304 207.3491 0864896 217.8923 135.7926 12.34407912201608
CSS (WENTIAN)           
1 53239U 22085A   25344.60082613  .00034963  00000+0  43761-3 0  9991
2 53239  41.4683  29.6917 0008768  13.0632 347.0432 15.59037498173845
CSS (MENGTIAN)          
1 54216U 22143A   25344.60082613  .00034963  00000+0  43761-3 0  9992
2 54216  41.4683  29.6917 0008768  13.0632 347.0432 15.59037498158642
SHENZHOU-20 (SZ-20)     
1 63632U 25082A   25344.60082613  .00034963  00000+0  43761-3 0  9999
2 63632  41.4683  29.6917 0008768  13.0632 347.0432 15.59037498255305
PROGRESS-MS 31          
1 64751U 25146A   25344.54178148  .00015517  00000+0  28443-3 0  9999
2 64751  51.6308 153.3620 0003360 230.7092 129.3599 15.49478601  6754
TIANZHOU-9              
1 64786U 25149A   25344.60082613  .00034963  00000+0  43761-3 0  9994
2 64786  41.4683  29.6917 0008768  13.0632 347.0432 15.59037498255306
CREW DRAGON 11          
1 65077U 25166A   25344.54178148  .00015517  00000+0  28443-3 0  9993
2 65077  51.6308 153.3620 0003360 230.7092 129.3599 15.49478601  2145
DRAGON CRS-33           
1 65304U 25186A   25344.54178148  .00015517  00000+0  28443-3 0  9998
2 65304  51.6308 153.3620 0003360 230.7092 129.3599 15.49478601   113
PROGRESS-MS 32          
1 65586U 25204A   25344.54178148  .00015517  00000+0  28443-3 0  9991
2 65586  51.6308 153.3620 0003360 230.7092 129.3599 15.49478601   272
