CCSDS_OMM_VERS = 2.0
CREATION_DATE  = 
ORIGINATOR     = 

OBJECT_NAME    = ISS (ZARYA)
OBJECT_ID      = 1998-067A
CENTER_NAME    = EARTH
REF_FRAME      = TEME
TIME_SYSTEM    = UTC
MEAN_ELEMENT_THEORY = SGP/SGP4

EPOCH          = 2025-12-10T13:00:09.919872
MEAN_MOTION    = 15.49478601
ECCENTRICITY   = .00033601
INCLINATION    = 51.6308
RA_OF_ASC_NODE = 153.3620
ARG_OF_PERICENTER = 230.7092
MEAN_ANOMALY   = 129.3599

EPHEMERIS_TYPE = 0
CLASSIFICATION_TYPE = U
NORAD_CAT_ID   = 25544
ELEMENT_SET_NO = 999
REV_AT_EPOCH   = 54251
BSTAR          = .2844348E-3
MEAN_MOTION_DOT = .15517E-3
MEAN_MOTION_DDOT = 0

CCSDS_OMM_VERS = 2.0
CREATION_DATE  = 
ORIGINATOR     = 

OBJECT_NAME    = CSS (TIANHE)
OBJECT_ID      = 2021-035A
CENTER_NAME    = EARTH
REF_FRAME      = TEME
TIME_SYSTEM    = UTC
MEAN_ELEMENT_THEORY = SGP/SGP4

EPOCH          = 2025-12-10T14:25:11.377632
MEAN_MOTION    = 15.59037498
ECCENTRICITY   = .00087682
INCLINATION    = 41.4683
RA_OF_ASC_NODE = 29.6917
ARG_OF_PERICENTER = 13.0632
MEAN_ANOMALY   = 347.0432

EPHEMERIS_TYPE = 0
CLASSIFICATION_TYPE = U
NORAD_CAT_ID   = 48274
ELEMENT_SET_NO = 999
REV_AT_EPOCH   = 26369
BSTAR          = .43760673E-3
MEAN_MOTION_DOT = .34963E-3
MEAN_MOTION_DDOT = 0

CCSDS_OMM_VERS = 2.0
CREATION_DATE  = 
ORIGINATOR     = 

OBJECT_NAME    = ISS (NAUKA)
OBJECT_ID      = 2021-066A
CENTER_NAME    = EARTH
REF_FRAME      = TEME
TIME_SYSTEM    = UTC
MEAN_ELEMENT_THEORY = SGP/SGP4

EPOCH          = 2025-12-10T13:00:09.919872
MEAN_MOTION    = 15.49478601
ECCENTRICITY   = .00033601
INCLINATION    = 51.6308
RA_OF_ASC_NODE = 153.3620
ARG_OF_PERICENTER = 230.7092
MEAN_ANOMALY   = 129.3599

EPHEMERIS_TYPE = 0
CLASSIFICATION_TYPE = U
NORAD_CAT_ID   = 49044
ELEMENT_SET_NO = 999
REV_AT_EPOCH   = 23044
BSTAR          = .2844348E-3
MEAN_MOTION_DOT = .15517E-3
MEAN_MOTION_DDOT = 0

CCSDS_OMM_VERS = 2.0
CREATION_DATE  = 
ORIGINATOR     = 

OBJECT_NAME    = FREGAT DEB
OBJECT_ID      = 2011-037PF
CENTER_NAME    = EARTH
REF_FRAME      = TEME
TIME_SYSTEM    = UTC
MEAN_ELEMENT_THEORY = SGP/SGP4

EPOCH          = 2025-12-10T01:28:03.798048
MEAN_MOTION    = 12.34407912
ECCENTRICITY   = .08648968
INCLINATION    = 51.6304
RA_OF_ASC_NODE = 207.3491
ARG_OF_PERICENTER = 217.8923
MEAN_ANOMALY   = 135.7926

EPHEMERIS_TYPE = 0
CLASSIFICATION_TYPE = U
NORAD_CAT_ID   = 49271
ELEMENT_SET_NO = 999
REV_AT_EPOCH   = 20160
BSTAR          = .72059654E-2
MEAN_MOTION_DOT = .3152E-4
MEAN_MOTION_DDOT = 0

CCSDS_OMM_VERS = 2.0
CREATION_DATE  = 
ORIGINATOR     = 

OBJECT_NAME    = CSS (WENTIAN)
OBJECT_ID      = 2022-085A
CENTER_NAME    = EARTH
REF_FRAME      = TEME
TIME_SYSTEM    = UTC
MEAN_ELEMENT_THEORY = SGP/SGP4

EPOCH          = 2025-12-10T14:25:11.377632
MEAN_MOTION    = 15.59037498
ECCENTRICITY   = .00087682
INCLINATION    = 41.4683
RA_OF_ASC_NODE = 29.6917
ARG_OF_PERICENTER = 13.0632
MEAN_ANOMALY   = 347.0432

EPHEMERIS_TYPE = 0
CLASSIFICATION_TYPE = U
NORAD_CAT_ID   = 53239
ELEMENT_SET_NO = 999
REV_AT_EPOCH   = 17384
BSTAR          = .43760673E-3
MEAN_MOTION_DOT = .34963E-3
MEAN_MOTION_DDOT = 0

CCSDS_OMM_VERS = 2.0
CREATION_DATE  = 
ORIGINATOR     = 

OBJECT_NAME    = CSS (MENGTIAN)
OBJECT_ID      = 2022-143A
CENTER_NAME    = EARTH
REF_FRAME      = TEME
TIME_SYSTEM    = UTC
MEAN_ELEMENT_THEORY = SGP/SGP4

EPOCH          = 2025-12-10T14:25:11.377632
MEAN_MOTION    = 15.59037498
ECCENTRICITY   = .00087682
INCLINATION    = 41.4683
RA_OF_ASC_NODE = 29.6917
ARG_OF_PERICENTER = 13.0632
MEAN_ANOMALY   = 347.0432

EPHEMERIS_TYPE = 0
CLASSIFICATION_TYPE = U
NORAD_CAT_ID   = 54216
ELEMENT_SET_NO = 999
REV_AT_EPOCH   = 15864
BSTAR          = .43760673E-3
MEAN_MOTION_DOT = .34963E-3
MEAN_MOTION_DDOT = 0

CCSDS_OMM_VERS = 2.0
CREATION_DATE  = 
ORIGINATOR     = 

OBJECT_NAME    = SHENZHOU-20 (SZ-20)
OBJECT_ID      = 2025-082A
CENTER_NAME    = EARTH
REF_FRAME      = TEME
TIME_SYSTEM    = UTC
MEAN_ELEMENT_THEORY = SGP/SGP4

EPOCH          = 2025-12-10T14:25:11.377632
MEAN_MOTION    = 15.59037498
ECCENTRICITY   = .00087682
INCLINATION    = 41.4683
RA_OF_ASC_NODE = 29.6917
ARG_OF_PERICENTER = 13.0632
MEAN_ANOMALY   = 347.0432

EPHEMERIS_TYPE = 0
CLASSIFICATION_TYPE = U
NORAD_CAT_ID   = 63632
ELEMENT_SET_NO = 999
REV_AT_EPOCH   = 25530
BSTAR          = .43760673E-3
MEAN_MOTION_DOT = .34963E-3
MEAN_MOTION_DDOT = 0

CCSDS_OMM_VERS = 2.0
CREATION_DATE  = 
ORIGINATOR     = 

OBJECT_NAME    = PROGRESS-MS 31
OBJECT_ID      = 2025-146A
CENTER_NAME    = EARTH
REF_FRAME      = TEME
TIME_SYSTEM    = UTC
MEAN_ELEMENT_THEORY = SGP/SGP4

EPOCH          = 2025-12-10T13:00:09.919872
MEAN_MOTION    = 15.49478601
ECCENTRICITY   = .00033601
INCLINATION    = 51.6308
RA_OF_ASC_NODE = 153.3620
ARG_OF_PERICENTER = 230.7092
MEAN_ANOMALY   = 129.3599

EPHEMERIS_TYPE = 0
CLASSIFICATION_TYPE = U
NORAD_CAT_ID   = 64751
ELEMENT_SET_NO = 999
REV_AT_EPOCH   = 675
BSTAR          = .2844348E-3
MEAN_MOTION_DOT = .15517E-3
MEAN_MOTION_DDOT = 0

CCSDS_OMM_VERS = 2.0
CREATION_DATE  = 
ORIGINATOR     = 

OBJECT_NAME    = TIANZHOU-9
OBJECT_ID      = 2025-149A
CENTER_NAME    = EARTH
REF_FRAME      = TEME
TIME_SYSTEM    = UTC
MEAN_ELEMENT_THEORY = SGP/SGP4

EPOCH          = 2025-12-10T14:25:11.377632
MEAN_MOTION    = 15.59037498
ECCENTRICITY   = .00087682
INCLINATION    = 41.4683
RA_OF_ASC_NODE = 29.6917
ARG_OF_PERICENTER = 13.0632
MEAN_ANOMALY   = 347.0432

EPHEMERIS_TYPE = 0
CLASSIFICATION_TYPE = U
NORAD_CAT_ID   = 64786
ELEMENT_SET_NO = 999
REV_AT_EPOCH   = 25530
BSTAR          = .43760673E-3
MEAN_MOTION_DOT = .34963E-3
MEAN_MOTION_DDOT = 0

CCSDS_OMM_VERS = 2.0
CREATION_DATE  = 
ORIGINATOR     = 

OBJECT_NAME    = CREW DRAGON 11
OBJECT_ID      = 2025-166A
CENTER_NAME    = EARTH
REF_FRAME      = TEME
TIME_SYSTEM    = UTC
MEAN_ELEMENT_THEORY = SGP/SGP4

EPOCH          = 2025-12-10T13:00:09.919872
MEAN_MOTION    = 15.49478601
ECCENTRICITY   = .00033601
INCLINATION    = 51.6308
RA_OF_ASC_NODE = 153.3620
ARG_OF_PERICENTER = 230.7092
MEAN_ANOMALY   = 129.3599

EPHEMERIS_TYPE = 0
CLASSIFICATION_TYPE = U
NORAD_CAT_ID   = 65077
ELEMENT_SET_NO = 999
REV_AT_EPOCH   = 214
BSTAR          = .2844348E-3
MEAN_MOTION_DOT = .15517E-3
MEAN_MOTION_DDOT = 0

CCSDS_OMM_VERS = 2.0
CREATION_DATE  = 
ORIGINATOR     = 

OBJECT_NAME    = DRAGON CRS-33
OBJECT_ID      = 2025-186A
CENTER_NAME    = EARTH
REF_FRAME      = TEME
TIME_SYSTEM    = UTC
MEAN_ELEMENT_THEORY = SGP/SGP4

EPOCH          = 2025-12-10T13:00:09.919872
MEAN_MOTION    = 15.49478601
ECCENTRICITY   = .00033601
INCLINATION    = 51.6308
RA_OF_ASC_NODE = 153.3620
ARG_OF_PERICENTER = 230.7092
MEAN_ANOMALY   = 129.3599

EPHEMERIS_TYPE = 0
CLASSIFICATION_TYPE = U
NORAD_CAT_ID   = 65304
ELEMENT_SET_NO = 999
REV_AT_EPOCH   = 11
BSTAR          = .2844348E-3
MEAN_MOTION_DOT = .15517E-3
MEAN_MOTION_DDOT = 0

CCSDS_OMM_VERS = 2.0
CREATION_DATE  = 
ORIGINATOR     = 

OBJECT_NAME    = PROGRESS-MS 32
OBJECT_ID      = 2025-204A
CENTER_NAME    = EARTH
REF_FRAME      = TEME
TIME_SYSTEM    = UTC
MEAN_ELEMENT_THEORY = SGP/SGP4

EPOCH          = 2025-12-10T13:00:09.919872
MEAN_MOTION    = 15.49478601
ECCENTRICITY   = .00033601
INCLINATION    = 51.6308
RA_OF_ASC_NODE = 153.3620
ARG_OF_PERICENTER = 230.7092
MEAN_ANOMALY   = 129.3599

EPHEMERIS_TYPE = 0
CLASSIFICATION_TYPE = U
NORAD_CAT_ID   = 65586
ELEMENT_SET_NO = 999
REV_AT_EPOCH   = 27
BSTAR          = .2844348E-3
MEAN_MOTION_DOT = .15517E-3
MEAN_MOTION_DDOT = 0

